[{"OBJECT_NAME":"SITRO-AIS 5 (KATYS)","OBJECT_ID":"2023-091L","EPOCH":"2026-03-09T22:36:44.932608","MEAN_MOTION":15.27079182,"ECCENTRICITY":0.00133776,"INCLINATION":97.5176,"RA_OF_ASC_NODE":132.0172,"ARG_OF_PERICENTER":94.5677,"MEAN_ANOMALY":265.709,"EPHEMERIS_TYPE":0,"CLASSIFICATION_TYPE":"U","NORAD_CAT_ID":57176,"ELEMENT_SET_NO":999,"REV_AT_EPOCH":14918,"BSTAR":0.00057530772,"MEAN_MOTION_DOT":0.00015262,"MEAN_MOTION_DDOT":0},{"OBJECT_NAME":"STARLINK-30256","OBJECT_ID":"2023-115B","EPOCH":"2026-03-09T04:55:32.299680","MEAN_MOTION":15.26726159,"ECCENTRICITY":0.00017429,"INCLINATION":43.0014,"RA_OF_ASC_NODE":4.6316,"ARG_OF_PERICENTER":264.2228,"MEAN_ANOMALY":95.8424,"EPHEMERIS_TYPE":0,"CLASSIFICATION_TYPE":"U","NORAD_CAT_ID":57522,"ELEMENT_SET_NO":999,"REV_AT_EPOCH":14227,"BSTAR":-0.00019068612,"MEAN_MOTION_DOT":-5.369e-5,"MEAN_MOTION_DDOT":0}]
